$$SOE
2459580.500000000, A.D. 2022-Jan-01 00:00:00.0000, 2.629908239686986E+08, 3.469356753671605E+08, -2.752726354677065E+07,
2459587.500000000, A.D. 2022-Jan-08 00:00:00.0000, 2.574968234680074E+08, 3.521693507379856E+08, -2.646477332117304E+07,
2459594.500000000, A.D. 2022-Jan-15 00:00:00.0000, 2.518530716394336E+08, 3.571982101847402E+08, -2.538689207656626E+07,
2459601.500000000, A.D. 2022-Jan-22 00:00:00.0000, 2.460635840765858E+08, 3.620203631940940E+08, -2.429432066262923E+07,
2459608.500000000, A.D. 2022-Jan-29 00:00:00.0000, 2.401323055531185E+08, 3.666338894510922E+08, -2.318774992581783E+07,
2459615.500000000, A.D. 2022-Feb-05 00:00:00.0000, 2.340631152435263E+08, 3.710368337629340E+08, -2.206786189455222E+07,
2459622.500000000, A.D. 2022-Feb-12 00:00:00.0000, 2.278598339775680E+08, 3.752272000246366E+08, -2.093533122330418E+07,
2459629.500000000, A.D. 2022-Feb-19 00:00:00.0000, 2.215262322368855E+08, 3.792029465690584E+08, -1.979082658674164E+07,
2459636.500000000, A.D. 2022-Feb-26 00:00:00.0000, 2.150660376133466E+08, 3.829619821537349E+08, -1.863501196862996E+07,
2459643.500000000, A.D. 2022-Mar-05 00:00:00.0000, 2.084829419197897E+08, 3.865021619460582E+08, -1.746854791653790E+07,
2459650.500000000, A.D. 2022-Mar-12 00:00:00.0000, 2.017806082072043E+08, 3.898212834210957E+08, -1.629209279420587E+07,
2459657.500000000, A.D. 2022-Mar-19 00:00:00.0000, 1.949626777922406E+08, 3.929170821811836E+08, -1.510630404200159E+07,
2459664.500000000, A.D. 2022-Mar-26 00:00:00.0000, 1.880327773510208E+08, 3.957872276733833E+08, -1.391183945426187E+07,
2459671.500000000, A.D. 2022-Apr-02 00:00:00.0000, 1.809945261815693E+08, 3.984293187318916E+08, -1.270935849065393E+07,
2459678.500000000, A.D. 2022-Apr-09 00:00:00.0000, 1.738515439427705E+08, 4.008408789342578E+08, -1.149952365260851E+07,
2459685.500000000, A.D. 2022-Apr-16 00:00:00.0000, 1.666074592651621E+08, 4.030193524107319E+08, -1.028300191092515E+07,
2459692.500000000, A.D. 2022-Apr-23 00:00:00.0000, 1.592659180058058E+08, 4.049621011751649E+08, -9.060465986677438E+06,
2459699.500000000, A.D. 2022-Apr-30 00:00:00.0000, 1.518305893177913E+08, 4.066664017139382E+08, -7.832595504352629E+06,
2459706.500000000, A.D. 2022-May-07 00:00:00.0000, 1.443051726393356E+08, 4.081294388463905E+08, -6.600078466764450E+06,
2459713.500000000, A.D. 2022-May-14 00:00:00.0000, 1.366934070418875E+08, 4.093482998841365E+08, -5.363612939336509E+06,
2459720.500000000, A.D. 2022-May-21 00:00:00.0000, 1.289990809593024E+08, 4.103199698331813E+08, -4.123908704229504E+06,
2459727.500000000, A.D. 2022-May-28 00:00:00.0000, 1.212260418748404E+08, 4.110413266656792E+08, -2.881688927923888E+06,
2459734.500000000, A.D. 2022-Jun-04 00:00:00.0000, 1.133782063038225E+08, 4.115091363358360E+08, -1.637691903215736E+06,
2459741.500000000, A.D. 2022-Jun-11 00:00:00.0000, 1.054595702833723E+08, 4.117200475303687E+08, -3.926728895868361E+05,
2459748.500000000, A.D. 2022-Jun-18 00:00:00.0000, 9.747422048125125E+07, 4.116705861558456E+08, 8.525939337403178E+05,
2459755.500000000, A.D. 2022-Jun-25 00:00:00.0000, 8.942634603388561E+07, 4.113571495198058E+08, 2.097313383717000E+06,
2459762.500000000, A.D. 2022-Jul-02 00:00:00.0000, 8.132025133658116E+07, 4.107760001314698E+08, 3.340667026521236E+06,
2459769.500000000, A.D. 2022-Jul-09 00:00:00.0000, 7.316037027468656E+07, 4.099232592929658E+08, 4.581810730856717E+06,
2459776.500000000, A.D. 2022-Jul-16 00:00:00.0000, 6.495128195101292E+07, 4.087949015613284E+08, 5.819872097787589E+06,
2459783.500000000, A.D. 2022-Jul-23 00:00:00.0000, 5.669772583638979E+07, 4.073867501569585E+08, 7.053947955877602E+06,
2459790.500000000, A.D. 2022-Jul-30 00:00:00.0000, 4.840461656463216E+07, 4.056944699611727E+08, 8.283101618873596E+06,
2459797.500000000, A.D. 2022-Aug-06 00:00:00.0000, 4.007706212262020E+07, 4.037135587566566E+08, 9.506359605550498E+06,
2459804.500000000, A.D. 2022-Aug-13 00:00:00.0000, 3.172038478749315E+07, 4.014393394759704E+08, 1.072270809575325E+07,
2459811.500000000, A.D. 2022-Aug-20 00:00:00.0000, 2.334014343576832E+07, 3.988669529654258E+08, 1.193108919585279E+07,
2459818.500000000, A.D. 2022-Aug-27 00:00:00.0000, 1.494215750636599E+07, 3.959913505580518E+08, 1.313039691518623E+07,
2459825.500000000, A.D. 2022-Sep-03 00:00:00.0000, 6.532533106182805E+06, 3.928072863810915E+08, 1.431947278509971E+07,
2459832.500000000, A.D. 2022-Sep-10 00:00:00.0000, -1.882308376934486E+06, 3.893093094751054E+08, 1.549710107326734E+07,
2459839.500000000, A.D. 2022-Sep-17 00:00:00.0000, -1.029559881012456E+07, 3.854917557932733E+08, 1.666200354426911E+07,
2459846.500000000, A.D. 2022-Sep-24 00:00:00.0000, -1.870018858222863E+07, 3.813487401190982E+08, 1.781283370464858E+07,
2459853.500000000, A.D. 2022-Oct-01 00:00:00.0000, -2.708850795606533E+07, 3.768741479930594E+08, 1.894817044990128E+07,
2459860.500000000, A.D. 2022-Oct-08 00:00:00.0000, -3.545252364032999E+07, 3.720616283154037E+08, 2.006651105263309E+07,
2459867.500000000, A.D. 2022-Oct-15 00:00:00.0000, -4.378369099153305E+07, 3.669045880127650E+08, 2.116626360099263E+07,
2459874.500000000, A.D. 2022-Oct-22 00:00:00.0000, -5.207290343042830E+07, 3.613961873221294E+08, 2.224573886586484E+07,
2459881.500000000, A.D. 2022-Oct-29 00:00:00.0000, -6.031043589896369E+07, 3.555293333928323E+08, 2.330314106149012E+07,
2459888.500000000, A.D. 2022-Nov-05 00:00:00.0000, -6.848587949363609E+07, 3.492966753324745E+08, 2.433655742570794E+07,
2459895.500000000, A.D. 2022-Nov-12 00:00:00.0000, -7.658806836094119E+07, 3.426906024550930E+08, 2.534394678511649E+07,
2459902.500000000, A.D. 2022-Nov-19 00:00:00.0000, -8.460499857128541E+07, 3.357032453896307E+08, 2.632312696033928E+07,
2459909.500000000, A.D. 2022-Nov-26 00:00:00.0000, -9.252373757001697E+07, 3.283264804236888E+08, 2.727176080688497E+07,
2459916.500000000, A.D. 2022-Dec-03 00:00:00.0000, -1.003303227452476E+08, 3.205519380475837E+08, 2.818734071114643E+07,
2459923.500000000, A.D. 2022-Dec-10 00:00:00.0000, -1.080096475991114E+08, 3.123710169505363E+08, 2.906717135756952E+07,
2459930.500000000, A.D. 2022-Dec-17 00:00:00.0000, -1.155453338390717E+08, 3.037749050007896E+08, 2.990835056429900E+07,
2459937.500000000, A.D. 2022-Dec-24 00:00:00.0000, -1.229195874149613E+08, 2.947546091098456E+08, 3.070774795747624E+07,
2459944.500000000, A.D. 2022-Dec-31 00:00:00.0000, -1.301130360620535E+08, 2.853009965723224E+08, 3.146198123244400E+07,
2459951.500000000, A.D. 2023-Jan-07 00:00:00.0000, -1.371045459267620E+08, 2.754048519849979E+08, 3.216738983357579E+07,
2459958.500000000, A.D. 2023-Jan-14 00:00:00.0000, -1.438710167339142E+08, 2.650569542202525E+08, 3.282000603926809E+07,
2459965.500000000, A.D. 2023-Jan-21 00:00:00.0000, -1.503871534476438E+08, 2.542481753106478E+08, 3.341552303115310E+07,
2459972.500000000, A.D. 2023-Jan-28 00:00:00.0000, -1.566252079602686E+08, 2.429696073822166E+08, 3.394925940796834E+07,
2459979.500000000, A.D. 2023-Feb-04 00:00:00.0000, -1.625546882754007E+08, 2.312127286717797E+08, 3.441612029380588E+07,
2459986.500000000, A.D. 2023-Feb-11 00:00:00.0000, -1.681420345010541E+08, 2.189696185532056E+08, 3.481055519386031E+07,
2459993.500000000, A.D. 2023-Feb-18 00:00:00.0000, -1.733502598653526E+08, 2.062332334790671E+08, 3.512651273903769E+07,
2460000.500000000, A.D. 2023-Feb-25 00:00:00.0000, -1.781385558499231E+08, 1.929977596535838E+08, 3.535739280165945E+07,
2460007.500000000, A.D. 2023-Mar-04 00:00:00.0000, -1.824618627615965E+08, 1.792590624121612E+08, 3.549599697633567E+07,
2460014.500000000, A.D. 2023-Mar-11 00:00:00.0000, -1.862704104851648E+08, 1.650152570248808E+08, 3.553447913830832E+07,
2460021.500000000, A.D. 2023-Mar-18 00:00:00.0000, -1.895092393933350E+08, 1.502674311177971E+08, 3.546429882216260E+07,
2460028.500000000, A.D. 2023-Mar-25 00:00:00.0000, -1.921177192491730E+08, 1.350205550295287E+08, 3.527618163677567E+07,
2460035.500000000, A.D. 2023-Apr-01 00:00:00.0000, -1.940290956462762E+08, 1.192846230964665E+08, 3.496009304994245E+07,
2460042.500000000, A.D. 2023-Apr-08 00:00:00.0000, -1.951701118922025E+08, 1.030760750101911E+08, 3.450523494962591E+07,
2460049.500000000, A.D. 2023-Apr-15 00:00:00.0000, -1.954607804253315E+08, 8.641954653648189E+07, 3.390007827539382E+07,
2460056.500000000, A.D. 2023-Apr-22 00:00:00.0000, -1.948144070929581E+08, 6.934999324622868E+07, 3.313244955064529E+07,
2460063.500000000, A.D. 2023-Apr-29 00:00:00.0000, -1.931380142009609E+08, 5.191522087221393E+07, 3.218969569664976E+07,
2460070.500000000, A.D. 2023-May-06 00:00:00.0000, -1.903333659671276E+08, 3.417882016202459E+07, 3.105895881959261E+07,
2460077.500000000, A.D. 2023-May-13 00:00:00.0000, -1.862988576389799E+08, 1.622343497443323E+07, 2.972759891447600E+07,
2460084.500000000, A.D. 2023-May-20 00:00:00.0000, -1.809325793655947E+08, -1.845818455637919E+06, 2.818380599548613E+07,
2460091.500000000, A.D. 2023-May-27 00:00:00.0000, -1.741368846423722E+08, -1.989813072305429E+07, 2.641743952772127E+07,
2460098.500000000, A.D. 2023-Jun-03 00:00:00.0000, -1.658247378466511E+08, -3.777455245663671E+07, 2.442111547686498E+07,
2460105.500000000, A.D. 2023-Jun-10 00:00:00.0000, -1.559279284145721E+08, -5.528715473492181E+07, 2.219152197258306E+07,
2460112.500000000, A.D. 2023-Jun-17 00:00:00.0000, -1.444068626225213E+08, -7.222084393414606E+07, 1.973087750536903E+07,
2460119.500000000, A.D. 2023-Jun-24 00:00:00.0000, -1.312610584764341E+08, -8.833890996328984E+07, 1.704835305540321E+07,
2460126.500000000, A.D. 2023-Jul-01 00:00:00.0000, -1.165387591215711E+08, -1.033930554006998E+08, 1.416118164214031E+07,
2460133.500000000, A.D. 2023-Jul-08 00:00:00.0000, -1.003434902607428E+08, -1.171378245727510E+08, 1.109511882132559E+07,
2460140.500000000, A.D. 2023-Jul-15 00:00:00.0000, -8.283529027250445E+07, -1.293480899384517E+08, 7.883951643797658E+06,
2460147.500000000, A.D. 2023-Jul-22 00:00:00.0000, -6.422506885971515E+07, -1.398369305892339E+08, 4.567919187752120E+06,
$$EOE